{"fetched_at":"2026-07-17T06:37:46.041Z","source":"https://celestrak.org/NORAD/elements/gp.php?GROUP=globalstar&FORMAT=JSON","constellation":"globalstar","records":[{"OBJECT_NAME":"GLOBALSTAR M069","OBJECT_ID":"2007-020C","EPOCH":"2026-07-16T09:04:58.811808","CLASSIFICATION_TYPE":"U","MEAN_MOTION":12.2347225,"ECCENTRICITY":0.000162,"INCLINATION":52.0008,"RA_OF_ASC_NODE":169.5027,"ARG_OF_PERICENTER":212.8917,"MEAN_ANOMALY":303.898,"EPHEMERIS_TYPE":0,"NORAD_CAT_ID":31573,"ELEMENT_SET_NO":999,"REV_AT_EPOCH":88237,"BSTAR":-0.00018316,"MEAN_MOTION_DOT":-0.00000112,"MEAN_MOTION_DDOT":0},{"OBJECT_NAME":"GLOBALSTAR M072","OBJECT_ID":"2007-020D","EPOCH":"2026-07-16T15:56:55.378176","CLASSIFICATION_TYPE":"U","MEAN_MOTION":11.91658857,"ECCENTRICITY":0.0001644,"INCLINATION":51.995,"RA_OF_ASC_NODE":21.7686,"ARG_OF_PERICENTER":38.6433,"MEAN_ANOMALY":39.8557,"EPHEMERIS_TYPE":0,"NORAD_CAT_ID":31574,"ELEMENT_SET_NO":999,"REV_AT_EPOCH":87849,"BSTAR":0.00011029,"MEAN_MOTION_DOT":-7.6e-7,"MEAN_MOTION_DDOT":0},{"OBJECT_NAME":"GLOBALSTAR M066","OBJECT_ID":"2007-048C","EPOCH":"2026-07-16T13:39:55.327104","CLASSIFICATION_TYPE":"U","MEAN_MOTION":12.30389593,"ECCENTRICITY":0.0005586,"INCLINATION":51.9609,"RA_OF_ASC_NODE":333.5655,"ARG_OF_PERICENTER":104.4817,"MEAN_ANOMALY":336.2278,"EPHEMERIS_TYPE":0,"NORAD_CAT_ID":32265,"ELEMENT_SET_NO":999,"REV_AT_EPOCH":86384,"BSTAR":0.00040679,"MEAN_MOTION_DOT":-4.6e-7,"MEAN_MOTION_DDOT":0},{"OBJECT_NAME":"GLOBALSTAR M079","OBJECT_ID":"2010-054A","EPOCH":"2026-07-16T16:13:09.441408","CLASSIFICATION_TYPE":"U","MEAN_MOTION":12.62266414,"ECCENTRICITY":0.0001127,"INCLINATION":52.0055,"RA_OF_ASC_NODE":18.9023,"ARG_OF_PERICENTER":80.3566,"MEAN_ANOMALY":358.465,"EPHEMERIS_TYPE":0,"NORAD_CAT_ID":37188,"ELEMENT_SET_NO":999,"REV_AT_EPOCH":72627,"BSTAR":-0.000028828,"MEAN_MOTION_DOT":-0.00000109,"MEAN_MOTION_DDOT":0},{"OBJECT_NAME":"GLOBALSTAR M074","OBJECT_ID":"2010-054B","EPOCH":"2026-07-16T12:48:47.903328","CLASSIFICATION_TYPE":"U","MEAN_MOTION":12.62262037,"ECCENTRICITY":0.0000866,"INCLINATION":52.0031,"RA_OF_ASC_NODE":18.5951,"ARG_OF_PERICENTER":94.2975,"MEAN_ANOMALY":299.2776,"EPHEMERIS_TYPE":0,"NORAD_CAT_ID":37189,"ELEMENT_SET_NO":999,"REV_AT_EPOCH":72686,"BSTAR":-0.0000081219,"MEAN_MOTION_DOT":-0.00000105,"MEAN_MOTION_DDOT":0},{"OBJECT_NAME":"GLOBALSTAR M076","OBJECT_ID":"2010-054C","EPOCH":"2026-07-16T15:34:08.624352","CLASSIFICATION_TYPE":"U","MEAN_MOTION":12.62262453,"ECCENTRICITY":0.0001099,"INCLINATION":52.0046,"RA_OF_ASC_NODE":18.4515,"ARG_OF_PERICENTER":94.4179,"MEAN_ANOMALY":341.0913,"EPHEMERIS_TYPE":0,"NORAD_CAT_ID":37190,"ELEMENT_SET_NO":999,"REV_AT_EPOCH":72659,"BSTAR":0.000068801,"MEAN_MOTION_DOT":-9.1e-7,"MEAN_MOTION_DDOT":0},{"OBJECT_NAME":"GLOBALSTAR M077","OBJECT_ID":"2010-054D","EPOCH":"2026-07-16T12:19:27.632064","CLASSIFICATION_TYPE":"U","MEAN_MOTION":11.67547399,"ECCENTRICITY":0.000224,"INCLINATION":51.9961,"RA_OF_ASC_NODE":104.8606,"ARG_OF_PERICENTER":227.7715,"MEAN_ANOMALY":303.2903,"EPHEMERIS_TYPE":0,"NORAD_CAT_ID":37191,"ELEMENT_SET_NO":999,"REV_AT_EPOCH":72456,"BSTAR":-0.0004494,"MEAN_MOTION_DOT":-0.00000102,"MEAN_MOTION_DDOT":0},{"OBJECT_NAME":"GLOBALSTAR M075","OBJECT_ID":"2010-054E","EPOCH":"2026-07-16T15:34:26.835744","CLASSIFICATION_TYPE":"U","MEAN_MOTION":12.62267876,"ECCENTRICITY":0.0000766,"INCLINATION":51.9955,"RA_OF_ASC_NODE":60.4882,"ARG_OF_PERICENTER":66.667,"MEAN_ANOMALY":310.3491,"EPHEMERIS_TYPE":0,"NORAD_CAT_ID":37192,"ELEMENT_SET_NO":999,"REV_AT_EPOCH":72566,"BSTAR":0.000077643,"MEAN_MOTION_DOT":-9e-7,"MEAN_MOTION_DDOT":0},{"OBJECT_NAME":"GLOBALSTAR M073","OBJECT_ID":"2010-054F","EPOCH":"2026-07-16T14:01:18.931296","CLASSIFICATION_TYPE":"U","MEAN_MOTION":12.62266918,"ECCENTRICITY":0.0001049,"INCLINATION":52.0082,"RA_OF_ASC_NODE":334.8088,"ARG_OF_PERICENTER":98.2466,"MEAN_ANOMALY":343.0539,"EPHEMERIS_TYPE":0,"NORAD_CAT_ID":37193,"ELEMENT_SET_NO":999,"REV_AT_EPOCH":72764,"BSTAR":0.000014331,"MEAN_MOTION_DOT":-0.00000101,"MEAN_MOTION_DDOT":0},{"OBJECT_NAME":"GLOBALSTAR M083","OBJECT_ID":"2011-033A","EPOCH":"2026-07-16T16:40:12.945792","CLASSIFICATION_TYPE":"U","MEAN_MOTION":12.62264243,"ECCENTRICITY":0.0000746,"INCLINATION":51.9864,"RA_OF_ASC_NODE":282.6625,"ARG_OF_PERICENTER":107.9646,"MEAN_ANOMALY":56.283,"EPHEMERIS_TYPE":0,"NORAD_CAT_ID":37739,"ELEMENT_SET_NO":999,"REV_AT_EPOCH":69667,"BSTAR":0.00017536,"MEAN_MOTION_DOT":-7.2e-7,"MEAN_MOTION_DDOT":0},{"OBJECT_NAME":"GLOBALSTAR M088","OBJECT_ID":"2011-033B","EPOCH":"2026-07-16T10:20:18.875328","CLASSIFICATION_TYPE":"U","MEAN_MOTION":12.62269485,"ECCENTRICITY":0.0000056,"INCLINATION":52.0189,"RA_OF_ASC_NODE":189.9625,"ARG_OF_PERICENTER":78.3233,"MEAN_ANOMALY":85.2183,"EPHEMERIS_TYPE":0,"NORAD_CAT_ID":37740,"ELEMENT_SET_NO":999,"REV_AT_EPOCH":69218,"BSTAR":-0.000077863,"MEAN_MOTION_DOT":-0.00000118,"MEAN_MOTION_DDOT":0},{"OBJECT_NAME":"GLOBALSTAR M091","OBJECT_ID":"2011-033C","EPOCH":"2026-07-16T21:21:45.047808","CLASSIFICATION_TYPE":"U","MEAN_MOTION":12.62264235,"ECCENTRICITY":0.0000467,"INCLINATION":51.9982,"RA_OF_ASC_NODE":151.486,"ARG_OF_PERICENTER":27.3782,"MEAN_ANOMALY":5.0326,"EPHEMERIS_TYPE":0,"NORAD_CAT_ID":37741,"ELEMENT_SET_NO":999,"REV_AT_EPOCH":69303,"BSTAR":-0.000053614,"MEAN_MOTION_DOT":-0.00000113,"MEAN_MOTION_DDOT":0},{"OBJECT_NAME":"GLOBALSTAR M085","OBJECT_ID":"2011-033D","EPOCH":"2026-07-16T19:11:22.848000","CLASSIFICATION_TYPE":"U","MEAN_MOTION":12.62264367,"ECCENTRICITY":0.0000811,"INCLINATION":52.0125,"RA_OF_ASC_NODE":103.0798,"ARG_OF_PERICENTER":43.6193,"MEAN_ANOMALY":357.1984,"EPHEMERIS_TYPE":0,"NORAD_CAT_ID":37742,"ELEMENT_SET_NO":999,"REV_AT_EPOCH":69353,"BSTAR":0.000086131,"MEAN_MOTION_DOT":-8.8e-7,"MEAN_MOTION_DDOT":0},{"OBJECT_NAME":"GLOBALSTAR M081","OBJECT_ID":"2011-033E","EPOCH":"2026-07-16T11:01:02.339040","CLASSIFICATION_TYPE":"U","MEAN_MOTION":12.62265285,"ECCENTRICITY":0.0000693,"INCLINATION":51.9955,"RA_OF_ASC_NODE":106.5188,"ARG_OF_PERICENTER":55.7935,"MEAN_ANOMALY":116.7743,"EPHEMERIS_TYPE":0,"NORAD_CAT_ID":37743,"ELEMENT_SET_NO":999,"REV_AT_EPOCH":69363,"BSTAR":0.000028382,"MEAN_MOTION_DOT":-9.9e-7,"MEAN_MOTION_DDOT":0},{"OBJECT_NAME":"GLOBALSTAR M089","OBJECT_ID":"2011-033F","EPOCH":"2026-07-16T14:56:50.783136","CLASSIFICATION_TYPE":"U","MEAN_MOTION":12.62267589,"ECCENTRICITY":0.0000702,"INCLINATION":51.9936,"RA_OF_ASC_NODE":60.1735,"ARG_OF_PERICENTER":90.9385,"MEAN_ANOMALY":287.2345,"EPHEMERIS_TYPE":0,"NORAD_CAT_ID":37744,"ELEMENT_SET_NO":999,"REV_AT_EPOCH":69450,"BSTAR":0.000072959,"MEAN_MOTION_DOT":-9.1e-7,"MEAN_MOTION_DDOT":0},{"OBJECT_NAME":"GLOBALSTAR M084","OBJECT_ID":"2011-080A","EPOCH":"2026-07-16T15:56:51.244800","CLASSIFICATION_TYPE":"U","MEAN_MOTION":12.62263528,"ECCENTRICITY":0.0000791,"INCLINATION":52.0022,"RA_OF_ASC_NODE":287.5451,"ARG_OF_PERICENTER":131.9235,"MEAN_ANOMALY":15.4992,"EPHEMERIS_TYPE":0,"NORAD_CAT_ID":38040,"ELEMENT_SET_NO":999,"REV_AT_EPOCH":67248,"BSTAR":0.000043179,"MEAN_MOTION_DOT":-9.6e-7,"MEAN_MOTION_DDOT":0}]}
