GLOBALSTAR M069         
1 31573U 07020C   26197.37845847 -.00000112  00000+0 -18316-3 0  9996
2 31573  52.0008 169.5027 0001620 212.8917 303.8980 12.23472250882372
GLOBALSTAR M072         
1 31574U 07020D   26197.66452984 -.00000076  00000+0  11029-3 0  9997
2 31574  51.9950  21.7686 0001644  38.6433  39.8557 11.91658857878497
GLOBALSTAR M066         
1 32265U 07048C   26197.56939036 -.00000046  00000+0  40679-3 0  9992
2 32265  51.9609 333.5655 0005586 104.4817 336.2278 12.30389593863842
GLOBALSTAR M079         
1 37188U 10054A   26197.67580372 -.00000109  00000+0 -28828-4 0  9993
2 37188  52.0055  18.9023 0001127  80.3566 358.4650 12.62266414726277
GLOBALSTAR M074         
1 37189U 10054B   26197.53388777 -.00000105  00000+0 -81219-5 0  9994
2 37189  52.0031  18.5951 0000866  94.2975 299.2776 12.62262037726868
GLOBALSTAR M076         
1 37190U 10054C   26197.64871093 -.00000091  00000+0  68801-4 0  9990
2 37190  52.0046  18.4515 0001099  94.4179 341.0913 12.62262453726599
GLOBALSTAR M077         
1 37191U 10054D   26197.51351426 -.00000102  00000+0 -44940-3 0  9991
2 37191  51.9961 104.8606 0002240 227.7715 303.2903 11.67547399724564
GLOBALSTAR M075         
1 37192U 10054E   26197.64892171 -.00000090  00000+0  77643-4 0  9995
2 37192  51.9955  60.4882 0000766  66.6670 310.3491 12.62267876725660
GLOBALSTAR M073         
1 37193U 10054F   26197.58424689 -.00000101  00000+0  14331-4 0  9992
2 37193  52.0082 334.8088 0001049  98.2466 343.0539 12.62266918727641
GLOBALSTAR M083         
1 37739U 11033A   26197.69459428 -.00000072  00000+0  17536-3 0  9993
2 37739  51.9864 282.6625 0000746 107.9646  56.2830 12.62264243696675
GLOBALSTAR M088         
1 37740U 11033B   26197.43077402 -.00000118  00000+0 -77863-4 0  9997
2 37740  52.0189 189.9625 0000056  78.3233  85.2183 12.62269485692183
GLOBALSTAR M091         
1 37741U 11033C   26197.89010472 -.00000113  00000+0 -53614-4 0  9995
2 37741  51.9982 151.4860 0000467  27.3782   5.0326 12.62264235693039
GLOBALSTAR M085         
1 37742U 11033D   26197.79957000 -.00000088  00000+0  86131-4 0  9992
2 37742  52.0125 103.0798 0000811  43.6193 357.1984 12.62264367693536
GLOBALSTAR M081         
1 37743U 11033E   26197.45905485 -.00000099  00000+0  28382-4 0  9992
2 37743  51.9955 106.5188 0000693  55.7935 116.7743 12.62265285693636
GLOBALSTAR M089         
1 37744U 11033F   26197.62280999 -.00000091  00000+0  72959-4 0  9999
2 37744  51.9936  60.1735 0000702  90.9385 287.2345 12.62267589694508
GLOBALSTAR M084         
1 38040U 11080A   26197.66448200 -.00000096  00000+0  43179-4 0  9993
2 38040  52.0022 287.5451 0000791 131.9235  15.4992 12.62263528672485
